     3.00           N: GNSS NAV DATA    E: Galileo          RINEX VERSION / TYPE
PREC2NAV                                20121215 063302 UTC PGM / RUN BY / DATE 
SOURCE: data/tum%W%D.sp3                                    COMMENT             
                                                            END OF HEADER       
E12 2012 11  3 14  0  0  .426311449360E-03  .851129384615E-10  .000000000000E+00
      .800000000000E+01 -.117781841963E+02  .344192849063E-08  .222396138659E+01
     -.428617974166E-06  .410116961939E-04  .841038300618E-05  .544060601002E+04
      .568800000000E+06  .117663798671E-06  .143927700273E+01  .347475661671E-07
      .956026007316E+00  .157814443447E+03 -.367340198607E+01 -.563310419243E-08
      .467051714914E-09  .000000000000E+00  .171200000000E+04  .000000000000E+00
      .240000000000E+01  .000000000000E+00  .000000000000E+00  .000000000000E+00
      .572400000000E+06  .000000000000E+00
E11 2012 11  3 16  0  0  .665921952000E-04  .384902600000E-09  .000000000000E+00
      .900000000000E+01 -.152023645687E+02  .341380376834E-08 -.260871508571E+01
     -.635207178509E-06  .156950043146E-03  .874484196834E-05  .544060927384E+04
      .576000000000E+06  .743344660052E-07  .143926270495E+01  .677644886696E-07
      .956017933855E+00  .151176331016E+03  .134817186969E+01 -.560447411192E-08
      .531305548160E-09  .000000000000E+00  .171200000000E+04  .000000000000E+00
      .240000000000E+01  .000000000000E+00  .000000000000E+00  .000000000000E+00
      .579600000000E+06  .000000000000E+00
E12 2012 11  3 16  0  0  .426924268480E-03  .851027333333E-10  .000000000000E+00
      .900000000000E+01 -.139064485174E+02  .339152840768E-08  .309727201650E+01
     -.548598223646E-06  .405413909307E-04  .884380695721E-05  .544060762425E+04
      .576000000000E+06 -.191576049639E-07  .143923589890E+01  .549588348127E-07
      .956030142673E+00  .149196441919E+03 -.365408307922E+01 -.556247385955E-08
      .576861593974E-09  .000000000000E+00  .171200000000E+04  .000000000000E+00
      .240000000000E+01  .000000000000E+00  .000000000000E+00  .000000000000E+00
      .579600000000E+06  .000000000000E+00
E11 2012 11  3 18  0  0  .693632203200E-04  .384849412821E-09  .000000000000E+00
      .100000000000E+02 -.135190008009E+02  .337962289868E-08 -.171889287934E+01
     -.522019248221E-06  .156617820438E-03  .910117742143E-05  .544060890151E+04
      .583200000000E+06 -.497132229009E-08  .143922213709E+01  .412735971576E-07
      .956022238981E+00  .143758695018E+03  .135097764672E+01 -.555322455689E-08
      .587530080151E-09  .000000000000E+00  .171200000000E+04  .000000000000E+00
      .240000000000E+01  .000000000000E+00  .000000000000E+00  .000000000000E+00
      .586800000000E+06  .000000000000E+00
E12 2012 11  3 18  0  0  .427536937840E-03  .850967948718E-10  .000000000000E+00
      .100000000000E+02 -.594454273524E+01  .340290884536E-08 -.544533565512E+01
     -.185141606423E-06 -.424842376428E-04  .951312190730E-05  .544060356049E+04
      .583200000000E+06 -.105168003340E-07  .143919590026E+01  .356946629491E-07
      .956034429996E+00  .136847894301E+03 -.502030057717E+00 -.554352898382E-08
      .582782895440E-09  .000000000000E+00  .171200000000E+04  .000000000000E+00
      .240000000000E+01  .000000000000E+00  .000000000000E+00  .000000000000E+00
      .586800000000E+06  .000000000000E+00
E11 2012 11  3 20  0  0  .721345213200E-04  .384925523077E-09  .000000000000E+00
      .110000000000E+02 -.710620859262E+01  .335581072845E-08 -.830888757728E+00
     -.271623157472E-06  .156915521743E-03  .946317058344E-05  .544060763781E+04
      .590400000000E+06 -.206408295081E-09  .143918219517E+01  .418956654020E-07
      .956026527493E+00  .138480835357E+03  .135560283419E+01 -.554345944921E-08
      .587200241184E-09  .000000000000E+00  .171200000000E+04  .000000000000E+00
      .240000000000E+01  .000000000000E+00  .000000000000E+00  .000000000000E+00
      .594000000000E+06  .000000000000E+00
E12 2012 11  3 20  0  0  .428149643640E-03  .850861128205E-10  .000000000000E+00
      .110000000000E+02  .307381191919E+01  .328987538589E-08 -.138397569257E+01
     -.440539824139E-07  .419341395336E-04  .934885280751E-05  .544060613331E+04
      .590400000000E+06 -.388921314651E-07  .143915617731E+01  .437813850642E-07
      .956038654846E+00  .140086935242E+03  .261242509160E+01 -.552642272977E-08
      .563540846581E-09  .000000000000E+00  .171200000000E+04  .000000000000E+00
      .240000000000E+01  .000000000000E+00  .000000000000E+00  .000000000000E+00
      .594000000000E+06  .000000000000E+00
E11 2012 11  3 22  0  0  .749060003200E-04  .384917710256E-09  .000000000000E+00
      .120000000000E+02  .414329932685E+00  .324287704329E-08  .659774910373E-01
     -.197765608149E-06  .157528402531E-03  .920512485089E-05  .544060932004E+04
      .597600000000E+06 -.575409427235E-07  .143914265232E+01  .319937310197E-07
      .956030750590E+00  .141574328093E+03  .135136394426E+01 -.551797139472E-08
      .545906589380E-09  .000000000000E+00  .171200000000E+04  .000000000000E+00
      .240000000000E+01  .000000000000E+00  .000000000000E+00  .000000000000E+00
      .601200000000E+06  .000000000000E+00
E12 2012 11  3 22  0  0  .428762318280E-03  .850925974359E-10  .000000000000E+00
      .120000000000E+02  .315950675994E+01  .325846899980E-08  .262033724930E+01
     -.526793438246E-09 -.412228524620E-04  .861166758591E-05  .544060317565E+04
      .597600000000E+06 -.162262143857E-07  .143911687308E+01 -.353046853405E-07
      .956042413783E+00  .150312737352E+03 -.499258244686E+00 -.553458244967E-08
      .491173711355E-09  .000000000000E+00  .171200000000E+04  .000000000000E+00
      .240000000000E+01  .000000000000E+00  .000000000000E+00  .000000000000E+00
      .601200000000E+06  .000000000000E+00
E11 2012 11  4  0  0  0  .776779092800E-04  .385126346154E-09  .000000000000E+00
      .130000000000E+02  .397620142595E+00  .314867589183E-08  .959849923168E+00
     -.972648960000E-07  .156536995391E-03  .863812385105E-05  .544060733473E+04
      .000000000000E+00 -.190578804689E-06  .131868726344E+01 -.188191551313E-06
      .956034758313E+00  .149763965863E+03  .135011972315E+01 -.541264142725E-08
      .578428959971E-09  .000000000000E+00  .171300000000E+04  .000000000000E+00
      .240000000000E+01  .000000000000E+00  .000000000000E+00  .000000000000E+00
      .360000000000E+04  .000000000000E+00
E12 2012 11  4  0  0  0  .429374995280E-03  .851153820513E-10  .000000000000E+00
      .130000000000E+02 -.106944195114E+02  .308069675883E-08  .373219878513E+00
     -.434564497374E-06  .434454545178E-04  .835980614575E-05  .544060777378E+04
      .000000000000E+00  .159752105891E-06  .131866166511E+01 -.826916934251E-07
      .956046445691E+00  .157907533146E+03  .264048810584E+01 -.542574476181E-08
      .487612247772E-09  .000000000000E+00  .171300000000E+04  .000000000000E+00
      .240000000000E+01  .000000000000E+00  .000000000000E+00  .000000000000E+00
      .360000000000E+04  .000000000000E+00
